SIRION PATHFINDER-2     
1 43759U 18099B   26131.57561237  .00002636  00000+0  14779-3 0  9991
2 43759  97.4284 181.5074 0010318  71.8725 288.3630 15.14206976407083
CORVUS BC4              
1 43767U 18099K   26131.06972625  .00003194  00000+0  18852-3 0  9997
2 43767  97.4100 175.1397 0009800 124.1393 236.0769 15.12188428406792
M2 PATHFINDER           
1 45727U 20037E   26131.26960603  .00001881  00000+0  13878-3 0  9999
2 45727  97.8165 322.0884 0010245 278.8246  81.1820 15.04513075319946
NETSAT-4                
1 46504U 20068U   26131.22973328  .00011889  00000+0  27496-3 0  9991
2 46504  97.8621 136.5388 0007676  95.0170 265.1952 15.42631433310079
NETSAT-3                
1 46505U 20068V   26131.72633575  .00011414  00000+0  27498-3 0  9990
2 46505  97.8668 135.3388 0007517 106.3702 253.8370 15.41412498310063
NETSAT-1                
1 46506U 20068W   26131.47962740  .00008038  00000+0  24890-3 0  9993
2 46506  97.8754 129.8268 0006700 125.9205 234.2659 15.33739661309676
NETSAT-2                
1 46507U 20068X   26131.76994213  .00014483  00000+0  31481-3 0  9991
2 46507  97.8635 136.8936 0006193 114.1091 246.0805 15.44440259310113
GREENCUBE (IO-117)      
1 53109U 22080E   26131.45410627 -.00000003  00000+0  00000+0 0  9994
2 53109  70.1441 311.0256 0008875 298.1354  61.8409  6.42583318 89707
SITRO-AIS 5 (KATYS)     
1 57176U 23091L   26131.87927219  .00006996  00000+0  25377-3 0  9995
2 57176  97.5084 195.4544 0010631 223.9326 136.1069 15.28609793158797
SITRO-AIS 6 (CHIRKIN)   
1 57192U 23091AC  26131.84192824  .00003590  00000+0  14559-3 0  9993
2 57192  97.5090 194.7238 0010786 227.8262 132.2060 15.25242168158746
SITRO-AIS 8 (ANOKHIN)   
1 57193U 23091AD  26131.82719522  .00008107  00000+0  27172-3 0  9996
2 57193  97.5078 196.8473 0009937 219.2392 140.8130 15.31141615158882
SITRO-AIS 7 (FARTUSHNIY)
1 57194U 23091AE  26131.83785503  .00003379  00000+0  13844-3 0  9997
2 57194  97.5088 194.5629 0010605 229.0400 130.9920 15.24948296158738
SITRO-AIS 10 (BURDAEV)  
1 57199U 23091AK  26131.81163235  .00011815  00000+0  32603-3 0  9990
2 57199  97.5098 201.5229 0006931 189.9536 170.1572 15.37225444159175
SITRO-AIS 9 (SHCHUKIN)  
1 57201U 23091AM  26131.82699197  .00011836  00000+0  33138-3 0  9993
2 57201  97.5096 201.2959 0007140 190.7930 169.3162 15.36772248159167
SITRO-AIS 12 (SMIRENNIY)
1 57204U 23091AQ  26131.82440074  .00012050  00000+0  33425-3 0  9992
2 57204  97.5109 201.7380 0006956 184.6309 175.4872 15.37056389159184
SITRO-AIS 11 (SHEFFER)  
1 57208U 23091AU  26131.84745117  .00011616  00000+0  31829-3 0  9997
2 57208  97.5107 201.9861 0006866 184.2441 175.8746 15.37448077159201
SITRO-AIS 25            
1 59066U 24039R   26131.85867801  .00002784  00000+0  21739-3 0  9995
2 59066  95.3921 210.1326 0147518  95.1175 266.6906 14.93254408119305
SITRO-AIS 26            
1 59067U 24039S   26131.85516789  .00002861  00000+0  22425-3 0  9991
2 59067  95.3926 210.0352 0147863  95.6555 266.1552 14.93057531119297
SITRO-AIS 27            
1 59068U 24039T   26131.83550813  .00003598  00000+0  27894-3 0  9999
2 59068  95.3922 210.2765 0147019  94.4575 267.3462 14.93467928119317
SITRO-AIS 28            
1 59071U 24039U   26131.81378617  .00003068  00000+0  23820-3 0  9998
2 59071  95.3925 210.3070 0146771  94.3897 267.4114 14.93501219119311
GRBBETA                 
1 60237U 24128C   26131.84647940  .00002453  00000+0  17699-3 0  9998
2 60237  61.9909 343.7388 0045416 127.1552 233.3702 15.06335360100792
OOV-CUBE (TUBSAT-30)    
1 60240U 24128F   26131.85590365  .00001439  00000+0  12083-3 0  9996
2 60240  61.9951 352.2411 0049033 125.8384 234.7277 15.02585018100652
ROBUSTA-3A (MEDITERRAN*)
1 60243U 24128J   26131.81301769  .00004730  00000+0  28731-3 0  9997
2 60243  61.9874 336.8193 0046201 120.9317 239.6331 15.11095752100926
LASARSAT                
1 62391U 24247Q   26131.64317313  .00020630  00000+0  44753-3 0  9997
2 62391  44.9739 107.1922 0004596 109.5737 250.5648 15.44103362 77662
CROCUBE                 
1 62394U 24247T   26131.61715455  .00023302  00000+0  47797-3 0  9996
2 62394  44.9712 105.2145 0004301 110.8993 249.2357 15.45682698 77684
FORESAIL-1 PRIME        
1 66778U 25276DS  26131.62212767  .00003214  00000+0  15972-3 0  9998
2 66778  97.4208 205.5700 0001679 192.8130 167.3062 15.18360338 24854
KNACKSAT-2              
1 67683U 98067XZ  26131.66763321  .00027184  00000+0  37638-3 0  9998
2 67683  51.6279 117.7017 0012595  63.6305 296.5978 15.56805390 14587
